[
  {
    "OBJECT_NAME": "STARLINK-1080",
    "OBJECT_ID": "20001AZ",
    "EPOCH": "2025-11-10T17:31:29.458848",
    "MEAN_MOTION": 15.06400605,
    "ECCENTRICITY": 0.0001404,
    "INCLINATION": 53.0527,
    "RA_OF_ASC_NODE": 120.649,
    "ARG_OF_PERICENTER": 84.0204,
    "MEAN_ANOMALY": 276.0945,
    "EPHEMERIS_TYPE": 0,
    "CLASSIFICATION_TYPE": "U",
    "NORAD_CAT_ID": 44961,
    "ELEMENT_SET_NO": 999,
    "REV_AT_EPOCH": 32248,
    "BSTAR": 5.8082000000000004e-05,
    "MEAN_MOTION_DOT": 5.84e-06,
    "MEAN_MOTION_DDOT": 0.0,
    "TLE_LINE1": "1 44961U 20001AZ  25314.73020207  .00000584  00000+0  58082-4 0  9996",
    "TLE_LINE2": "2 44961  53.0527 120.6490 0001404  84.0204 276.0945 15.06400605322486",
    "COMMENT": "Grouped by shell and plane from TLE"
  },
  {
    "OBJECT_NAME": "STARLINK-1090",
    "OBJECT_ID": "20001BG",
    "EPOCH": "2025-11-10T20:47:52.590624",
    "MEAN_MOTION": 15.06397101,
    "ECCENTRICITY": 0.0001509,
    "INCLINATION": 53.0532,
    "RA_OF_ASC_NODE": 120.0372,
    "ARG_OF_PERICENTER": 89.9178,
    "MEAN_ANOMALY": 270.1984,
    "EPHEMERIS_TYPE": 0,
    "CLASSIFICATION_TYPE": "U",
    "NORAD_CAT_ID": 44968,
    "ELEMENT_SET_NO": 999,
    "REV_AT_EPOCH": 32250,
    "BSTAR": 0.00011679000000000001,
    "MEAN_MOTION_DOT": 1.458e-05,
    "MEAN_MOTION_DDOT": 0.0,
    "TLE_LINE1": "1 44968U 20001BG  25314.86658091  .00001458  00000+0  11679-3 0  9996",
    "TLE_LINE2": "2 44968  53.0532 120.0372 0001509  89.9178 270.1984 15.06397101322509",
    "COMMENT": "Grouped by shell and plane from TLE"
  },
  {
    "OBJECT_NAME": "STARLINK-1597",
    "OBJECT_ID": "20057AB",
    "EPOCH": "2025-11-11T05:10:47.473536",
    "MEAN_MOTION": 15.06401604,
    "ECCENTRICITY": 0.0001621,
    "INCLINATION": 53.0535,
    "RA_OF_ASC_NODE": 128.4673,
    "ARG_OF_PERICENTER": 91.1206,
    "MEAN_ANOMALY": 268.9969,
    "EPHEMERIS_TYPE": 0,
    "CLASSIFICATION_TYPE": "U",
    "NORAD_CAT_ID": 46142,
    "ELEMENT_SET_NO": 999,
    "REV_AT_EPOCH": 28820,
    "BSTAR": 0.00017315,
    "MEAN_MOTION_DOT": 2.299e-05,
    "MEAN_MOTION_DDOT": 0.0,
    "TLE_LINE1": "1 46142U 20057AB  25315.21582724  .00002299  00000+0  17315-3 0  9999",
    "TLE_LINE2": "2 46142  53.0535 128.4673 0001621  91.1206 268.9969 15.06401604288206",
    "COMMENT": "Grouped by shell and plane from TLE"
  },
  {
    "OBJECT_NAME": "STARLINK-1608",
    "OBJECT_ID": "20057AF",
    "EPOCH": "2025-11-10T21:28:59.920608",
    "MEAN_MOTION": 15.06398305,
    "ECCENTRICITY": 7.88e-05,
    "INCLINATION": 53.0535,
    "RA_OF_ASC_NODE": 129.9072,
    "ARG_OF_PERICENTER": 95.9492,
    "MEAN_ANOMALY": 264.1587,
    "EPHEMERIS_TYPE": 0,
    "CLASSIFICATION_TYPE": "U",
    "NORAD_CAT_ID": 46146,
    "ELEMENT_SET_NO": 999,
    "REV_AT_EPOCH": 28816,
    "BSTAR": 0.0,
    "MEAN_MOTION_DOT": -4.528e-05,
    "MEAN_MOTION_DDOT": 0.0,
    "TLE_LINE1": "1 46146U 20057AF  25314.89513797 -.00004528  00000+0 -28533-3 0  9993",
    "TLE_LINE2": "2 46146  53.0535 129.9072 0000788  95.9492 264.1587 15.06398305288163",
    "COMMENT": "Grouped by shell and plane from TLE"
  },
  {
    "OBJECT_NAME": "STARLINK-1595",
    "OBJECT_ID": "20057AU",
    "EPOCH": "2025-11-11T04:49:34.150080",
    "MEAN_MOTION": 15.06398306,
    "ECCENTRICITY": 0.0001317,
    "INCLINATION": 53.0501,
    "RA_OF_ASC_NODE": 128.537,
    "ARG_OF_PERICENTER": 90.1082,
    "MEAN_ANOMALY": 270.0058,
    "EPHEMERIS_TYPE": 0,
    "CLASSIFICATION_TYPE": "U",
    "NORAD_CAT_ID": 46159,
    "ELEMENT_SET_NO": 999,
    "REV_AT_EPOCH": 28946,
    "BSTAR": 0.00041957,
    "MEAN_MOTION_DOT": 5.973e-05,
    "MEAN_MOTION_DDOT": 0.0,
    "TLE_LINE1": "1 46159U 20057AU  25315.20108970  .00005973  00000+0  41957-3 0  9994",
    "TLE_LINE2": "2 46159  53.0501 128.5370 0001317  90.1082 270.0058 15.06398306289461",
    "COMMENT": "Grouped by shell and plane from TLE"
  },
  {
    "OBJECT_NAME": "STARLINK-1626",
    "OBJECT_ID": "20057BC",
    "EPOCH": "2025-11-10T21:39:38.534976",
    "MEAN_MOTION": 15.0640569,
    "ECCENTRICITY": 0.000145,
    "INCLINATION": 53.0523,
    "RA_OF_ASC_NODE": 129.8715,
    "ARG_OF_PERICENTER": 83.6617,
    "MEAN_ANOMALY": 276.4538,
    "EPHEMERIS_TYPE": 0,
    "CLASSIFICATION_TYPE": "U",
    "NORAD_CAT_ID": 46167,
    "ELEMENT_SET_NO": 999,
    "REV_AT_EPOCH": 28816,
    "BSTAR": 0.0002863,
    "MEAN_MOTION_DOT": 3.986e-05,
    "MEAN_MOTION_DDOT": 0.0,
    "TLE_LINE1": "1 46167U 20057BC  25314.90252934  .00003986  00000+0  28630-3 0  9994",
    "TLE_LINE2": "2 46167  53.0523 129.8715 0001450  83.6617 276.4538 15.06405690288164",
    "COMMENT": "Grouped by shell and plane from TLE"
  },
  {
    "OBJECT_NAME": "STARLINK-1640",
    "OBJECT_ID": "20057BJ",
    "EPOCH": "2025-11-11T04:54:50.320512",
    "MEAN_MOTION": 15.06419229,
    "ECCENTRICITY": 0.0001185,
    "INCLINATION": 53.0529,
    "RA_OF_ASC_NODE": 128.518,
    "ARG_OF_PERICENTER": 72.405,
    "MEAN_ANOMALY": 287.7069,
    "EPHEMERIS_TYPE": 0,
    "CLASSIFICATION_TYPE": "U",
    "NORAD_CAT_ID": 46173,
    "ELEMENT_SET_NO": 999,
    "REV_AT_EPOCH": 28820,
    "BSTAR": 0.00027589000000000004,
    "MEAN_MOTION_DOT": 3.832e-05,
    "MEAN_MOTION_DDOT": 0.0,
    "TLE_LINE1": "1 46173U 20057BJ  25315.20474908  .00003832  00000+0  27589-3 0  9994",
    "TLE_LINE2": "2 46173  53.0529 128.5180 0001185  72.4050 287.7069 15.06419229288203",
    "COMMENT": "Grouped by shell and plane from TLE"
  },
  {
    "OBJECT_NAME": "STARLINK-1913",
    "OBJECT_ID": "20088BK",
    "EPOCH": "2025-11-11T04:15:43.603200",
    "MEAN_MOTION": 15.06406268,
    "ECCENTRICITY": 0.0001357,
    "INCLINATION": 53.0506,
    "RA_OF_ASC_NODE": 123.6398,
    "ARG_OF_PERICENTER": 90.7182,
    "MEAN_ANOMALY": 269.3963,
    "EPHEMERIS_TYPE": 0,
    "CLASSIFICATION_TYPE": "U",
    "NORAD_CAT_ID": 47179,
    "ELEMENT_SET_NO": 999,
    "REV_AT_EPOCH": 27383,
    "BSTAR": 0.00024356,
    "MEAN_MOTION_DOT": 3.349e-05,
    "MEAN_MOTION_DDOT": 0.0,
    "TLE_LINE1": "1 47179U 20088BK  25315.17758800  .00003349  00000+0  24356-3 0  9999",
    "TLE_LINE2": "2 47179  53.0506 123.6398 0001357  90.7182 269.3963 15.06406268273833",
    "COMMENT": "Grouped by shell and plane from TLE"
  },
  {
    "OBJECT_NAME": "STARLINK-2266",
    "OBJECT_ID": "21024W",
    "EPOCH": "2025-11-10T18:05:19.842432",
    "MEAN_MOTION": 15.06413008,
    "ECCENTRICITY": 0.0001507,
    "INCLINATION": 53.0517,
    "RA_OF_ASC_NODE": 125.5424,
    "ARG_OF_PERICENTER": 89.7157,
    "MEAN_ANOMALY": 270.4004,
    "EPHEMERIS_TYPE": 0,
    "CLASSIFICATION_TYPE": "U",
    "NORAD_CAT_ID": 47997,
    "ELEMENT_SET_NO": 999,
    "REV_AT_EPOCH": 25698,
    "BSTAR": 0.00045941,
    "MEAN_MOTION_DOT": 6.57e-05,
    "MEAN_MOTION_DDOT": 0.0,
    "TLE_LINE1": "1 47997U 21024W   25314.75370188  .00006570  00000+0  45941-3 0  9992",
    "TLE_LINE2": "2 47997  53.0517 125.5424 0001507  89.7157 270.4004 15.06413008256987",
    "COMMENT": "Grouped by shell and plane from TLE"
  },
  {
    "OBJECT_NAME": "STARLINK-2153",
    "OBJECT_ID": "21024AJ",
    "EPOCH": "2025-11-11T04:17:43.312128",
    "MEAN_MOTION": 15.06382832,
    "ECCENTRICITY": 0.0001586,
    "INCLINATION": 53.056,
    "RA_OF_ASC_NODE": 128.6327,
    "ARG_OF_PERICENTER": 90.3105,
    "MEAN_ANOMALY": 269.8066,
    "EPHEMERIS_TYPE": 0,
    "CLASSIFICATION_TYPE": "U",
    "NORAD_CAT_ID": 48009,
    "ELEMENT_SET_NO": 999,
    "REV_AT_EPOCH": 25692,
    "BSTAR": 0.0,
    "MEAN_MOTION_DOT": -3.119e-05,
    "MEAN_MOTION_DDOT": 0.0,
    "TLE_LINE1": "1 48009U 21024AJ  25315.17897352 -.00003119  00000+0 -19064-3 0  9996",
    "TLE_LINE2": "2 48009  53.0560 128.6327 0001586  90.3105 269.8066 15.06382832256928",
    "COMMENT": "Grouped by shell and plane from TLE"
  },
  {
    "OBJECT_NAME": "STARLINK-2285",
    "OBJECT_ID": "21024AU",
    "EPOCH": "2025-11-10T21:21:43.038144",
    "MEAN_MOTION": 15.06400757,
    "ECCENTRICITY": 0.0001712,
    "INCLINATION": 53.052,
    "RA_OF_ASC_NODE": 124.9279,
    "ARG_OF_PERICENTER": 91.6531,
    "MEAN_ANOMALY": 268.4654,
    "EPHEMERIS_TYPE": 0,
    "CLASSIFICATION_TYPE": "U",
    "NORAD_CAT_ID": 48019,
    "ELEMENT_SET_NO": 999,
    "REV_AT_EPOCH": 25694,
    "BSTAR": 0.00012319,
    "MEAN_MOTION_DOT": 1.554e-05,
    "MEAN_MOTION_DDOT": 0.0,
    "TLE_LINE1": "1 48019U 21024AU  25314.89008146  .00001554  00000+0  12319-3 0  9995",
    "TLE_LINE2": "2 48019  53.0520 124.9279 0001712  91.6531 268.4654 15.06400757256945",
    "COMMENT": "Grouped by shell and plane from TLE"
  },
  {
    "OBJECT_NAME": "STARLINK-3184",
    "OBJECT_ID": "22005AR",
    "EPOCH": "2025-11-11T04:23:03.639264",
    "MEAN_MOTION": 15.08841838,
    "ECCENTRICITY": 8.45e-05,
    "INCLINATION": 53.216,
    "RA_OF_ASC_NODE": 121.1178,
    "ARG_OF_PERICENTER": 86.2556,
    "MEAN_ANOMALY": 273.8533,
    "EPHEMERIS_TYPE": 0,
    "CLASSIFICATION_TYPE": "U",
    "NORAD_CAT_ID": 51143,
    "ELEMENT_SET_NO": 999,
    "REV_AT_EPOCH": 21070,
    "BSTAR": 0.0,
    "MEAN_MOTION_DOT": -5.47e-06,
    "MEAN_MOTION_DDOT": 0.0,
    "TLE_LINE1": "1 51143U 22005AR  25315.18268101 -.00000547  00000+0 -16314-4 0  9992",
    "TLE_LINE2": "2 51143  53.2160 121.1178 0000845  86.2556 273.8533 15.08841838210700",
    "COMMENT": "Grouped by shell and plane from TLE"
  },
  {
    "OBJECT_NAME": "STARLINK-3359",
    "OBJECT_ID": "22005AW",
    "EPOCH": "2025-11-10T17:32:40.488288",
    "MEAN_MOTION": 15.08842792,
    "ECCENTRICITY": 0.0001946,
    "INCLINATION": 53.2183,
    "RA_OF_ASC_NODE": 123.3496,
    "ARG_OF_PERICENTER": 93.8592,
    "MEAN_ANOMALY": 266.2623,
    "EPHEMERIS_TYPE": 0,
    "CLASSIFICATION_TYPE": "U",
    "NORAD_CAT_ID": 51148,
    "ELEMENT_SET_NO": 999,
    "REV_AT_EPOCH": 21063,
    "BSTAR": 7.7265e-05,
    "MEAN_MOTION_DOT": 9.42e-06,
    "MEAN_MOTION_DDOT": 0.0,
    "TLE_LINE1": "1 51148U 22005AW  25314.73102417  .00000942  00000+0  77265-4 0  9993",
    "TLE_LINE2": "2 51148  53.2183 123.3496 0001946  93.8592 266.2623 15.08842792210632",
    "COMMENT": "Grouped by shell and plane from TLE"
  }
]